{
  "type": "FeatureCollection",
  "features": [
    {
      "type": "Feature",
      "properties": {
        "norad_id": 58701,
        "name": "TIANMU-1 16",
        "group": "weather",
        "lat": 51.65410485830914,
        "lon": 157.19360685566122,
        "alt_km": 488.9569694802876,
        "timestamp": "2025-12-11T20:41:14.731342+00:00",
        "meta_object_name": "TIANMU-1 16",
        "meta_object_id": "2024-004B",
        "meta_epoch": "2025-12-11T15:43:57.898272",
        "meta_mean_motion": 15.24408701,
        "meta_eccentricity": 0.00045551,
        "meta_inclination": 97.4571,
        "meta_ra_of_asc_node": 166.5191,
        "meta_arg_of_pericenter": 301.5248,
        "meta_mean_anomaly": 58.5545,
        "meta_ephemeris_type": 0,
        "meta_classification_type": "U",
        "meta_norad_cat_id": 58701,
        "meta_element_set_no": 999,
        "meta_rev_at_epoch": 10718,
        "meta_bstar": 0.00042772258,
        "meta_mean_motion_dot": 0.00010423,
        "meta_mean_motion_ddot": 0,
        "tle_line1": "1 58701U 24004B   25345.65553123  .00010423  00000+0  42772-3 0  9994",
        "tle_line2": "2 58701  97.4571 166.5191 0004555 301.5248  58.5545 15.24408701107188"
      },
      "geometry": {
        "type": "Point",
        "coordinates": [
          157.19360685566122,
          51.65410485830914
        ]
      }
    },
    {
      "type": "Feature",
      "properties": {
        "norad_id": 58702,
        "name": "TIANMU-1 17",
        "group": "weather",
        "lat": 42.81453379928511,
        "lon": -5.892451703852253,
        "alt_km": 491.45189386235506,
        "timestamp": "2025-12-11T20:41:14.731352+00:00",
        "meta_object_name": "TIANMU-1 17",
        "meta_object_id": "2024-004C",
        "meta_epoch": "2025-12-11T15:21:49.656384",
        "meta_mean_motion": 15.24453325,
        "meta_eccentricity": 0.00037248,
        "meta_inclination": 97.4606,
        "meta_ra_of_asc_node": 166.9132,
        "meta_arg_of_pericenter": 305.5653,
        "meta_mean_anomaly": 54.5237,
        "meta_ephemeris_type": 0,
        "meta_classification_type": "U",
        "meta_norad_cat_id": 58702,
        "meta_element_set_no": 999,
        "meta_rev_at_epoch": 10717,
        "meta_bstar": 0.00040629034,
        "meta_mean_motion_dot": 9.909e-05,
        "meta_mean_motion_ddot": 0,
        "tle_line1": "1 58702U 24004C   25345.64015806  .00009909  00000+0  40629-3 0  9991",
        "tle_line2": "2 58702  97.4606 166.9132 0003724 305.5653  54.5237 15.24453325107173"
      },
      "geometry": {
        "type": "Point",
        "coordinates": [
          -5.892451703852253,
          42.81453379928511
        ]
      }
    },
    {
      "type": "Feature",
      "properties": {
        "norad_id": 58703,
        "name": "TIANMU-1 18",
        "group": "weather",
        "lat": -47.74161233332727,
        "lon": -20.965093460610202,
        "alt_km": 498.8214515335494,
        "timestamp": "2025-12-11T20:41:14.731364+00:00",
        "meta_object_name": "TIANMU-1 18",
        "meta_object_id": "2024-004D",
        "meta_epoch": "2025-12-11T14:57:47.109888",
        "meta_mean_motion": 15.24448644,
        "meta_eccentricity": 0.00030644,
        "meta_inclination": 97.4622,
        "meta_ra_of_asc_node": 167.0917,
        "meta_arg_of_pericenter": 305.9073,
        "meta_mean_anomaly": 54.188,
        "meta_ephemeris_type": 0,
        "meta_classification_type": "U",
        "meta_norad_cat_id": 58703,
        "meta_element_set_no": 999,
        "meta_rev_at_epoch": 10717,
        "meta_bstar": 0.00060770317,
        "meta_mean_motion_dot": 0.00014863,
        "meta_mean_motion_ddot": 0,
        "tle_line1": "1 58703U 24004D   25345.62346192  .00014863  00000+0  60770-3 0  9999",
        "tle_line2": "2 58703  97.4622 167.0917 0003064 305.9073  54.1880 15.24448644107170"
      },
      "geometry": {
        "type": "Point",
        "coordinates": [
          -20.965093460610202,
          -47.74161233332727
        ]
      }
    },
    {
      "type": "Feature",
      "properties": {
        "norad_id": 58990,
        "name": "INSAT-3DS",
        "group": "weather",
        "lat": 0.012828921148041584,
        "lon": 113.19391549545303,
        "alt_km": 35790.979308536465,
        "timestamp": "2025-12-11T20:41:14.731376+00:00",
        "meta_object_name": "INSAT-3DS",
        "meta_object_id": "2024-033A",
        "meta_epoch": "2025-12-11T13:54:05.321664",
        "meta_mean_motion": 1.00272524,
        "meta_eccentricity": 0.0001384,
        "meta_inclination": 0.0383,
        "meta_ra_of_asc_node": 135.3799,
        "meta_arg_of_pericenter": 128.2274,
        "meta_mean_anomaly": 107.5305,
        "meta_ephemeris_type": 0,
        "meta_classification_type": "U",
        "meta_norad_cat_id": 58990,
        "meta_element_set_no": 999,
        "meta_rev_at_epoch": 4518,
        "meta_bstar": 0,
        "meta_mean_motion_dot": -1.49e-06,
        "meta_mean_motion_ddot": 0,
        "tle_line1": "1 58990U 24033A   25345.57922826 -.00000149  00000+0  00000+0 0  9996",
        "tle_line2": "2 58990   0.0383 135.3799 0001384 128.2274 107.5305  1.00272524 45188"
      },
      "geometry": {
        "type": "Point",
        "coordinates": [
          113.19391549545303,
          0.012828921148041584
        ]
      }
    },
    {
      "type": "Feature",
      "properties": {
        "norad_id": 59051,
        "name": "METEOR-M2 4",
        "group": "weather",
        "lat": 4.73866204156963,
        "lon": -57.940645586063106,
        "alt_km": 814.425612763338,
        "timestamp": "2025-12-11T20:41:14.731387+00:00",
        "meta_object_name": "METEOR-M2 4",
        "meta_object_id": "2024-039A",
        "meta_epoch": "2025-12-11T15:36:00.940032",
        "meta_mean_motion": 14.22401073,
        "meta_eccentricity": 0.00071003,
        "meta_inclination": 98.6764,
        "meta_ra_of_asc_node": 302.576,
        "meta_arg_of_pericenter": 1.6485,
        "meta_mean_anomaly": 358.4715,
        "meta_ephemeris_type": 0,
        "meta_classification_type": "U",
        "meta_norad_cat_id": 59051,
        "meta_element_set_no": 999,
        "meta_rev_at_epoch": 9260,
        "meta_bstar": 6.2325688e-05,
        "meta_mean_motion_dot": 9.5e-07,
        "meta_mean_motion_ddot": 0,
        "tle_line1": "1 59051U 24039A   25345.65001088  .00000095  00000+0  62326-4 0  9991",
        "tle_line2": "2 59051  98.6764 302.5760 0007100   1.6485 358.4715 14.22401073 92601"
      },
      "geometry": {
        "type": "Point",
        "coordinates": [
          -57.940645586063106,
          4.73866204156963
        ]
      }
    },
    {
      "type": "Feature",
      "properties": {
        "norad_id": 60133,
        "name": "GOES 19",
        "group": "weather",
        "lat": -0.007086574864215239,
        "lon": -44.05973501487514,
        "alt_km": 35780.86191497583,
        "timestamp": "2025-12-11T20:41:14.731398+00:00",
        "meta_object_name": "GOES 19",
        "meta_object_id": "2024-119A",
        "meta_epoch": "2025-12-11T13:09:17.112672",
        "meta_mean_motion": 1.00271105,
        "meta_eccentricity": 0.00012982,
        "meta_inclination": 0.0232,
        "meta_ra_of_asc_node": 117.6032,
        "meta_arg_of_pericenter": 193.1835,
        "meta_mean_anomaly": 251.8582,
        "meta_ephemeris_type": 0,
        "meta_classification_type": "U",
        "meta_norad_cat_id": 60133,
        "meta_element_set_no": 999,
        "meta_rev_at_epoch": 508,
        "meta_bstar": 0,
        "meta_mean_motion_dot": -2.41e-06,
        "meta_mean_motion_ddot": 0,
        "tle_line1": "1 60133U 24119A   25345.54811473 -.00000241  00000+0  00000+0 0  9998",
        "tle_line2": "2 60133   0.0232 117.6032 0001298 193.1835 251.8582  1.00271105  5083"
      },
      "geometry": {
        "type": "Point",
        "coordinates": [
          -44.05973501487514,
          -0.007086574864215239
        ]
      }
    },
    {
      "type": "Feature",
      "properties": {
        "norad_id": 65815,
        "name": "FENGYUN 3H",
        "group": "weather",
        "lat": -69.84405734251938,
        "lon": 80.94418469310796,
        "alt_km": 833.3462013423832,
        "timestamp": "2025-12-11T20:41:14.731408+00:00",
        "meta_object_name": "FENGYUN 3H",
        "meta_object_id": "2025-219A",
        "meta_epoch": "2025-12-11T14:25:55.208352",
        "meta_mean_motion": 14.19904245,
        "meta_eccentricity": 6.088e-05,
        "meta_inclination": 98.6583,
        "meta_ra_of_asc_node": 285.2164,
        "meta_arg_of_pericenter": 90.1344,
        "meta_mean_anomaly": 269.9902,
        "meta_ephemeris_type": 0,
        "meta_classification_type": "U",
        "meta_norad_cat_id": 65815,
        "meta_element_set_no": 999,
        "meta_rev_at_epoch": 1076,
        "meta_bstar": 0.00010628725,
        "meta_mean_motion_dot": 1.82e-06,
        "meta_mean_motion_ddot": 0,
        "tle_line1": "1 65815U 25219A   25345.60133343  .00000182  00000+0  10629-3 0  9997",
        "tle_line2": "2 65815  98.6583 285.2164 0000608  90.1344 269.9902 14.19904245 10769"
      },
      "geometry": {
        "type": "Point",
        "coordinates": [
          80.94418469310796,
          -69.84405734251938
        ]
      }
    }
  ]
}